[
    {
        "Altitude(m)": 555047.6542421391,
        "Argument of Periapsis(deg)": 0.033114955553567506,
        "Eccentricity": 0.0,
        "Inclination(deg)": 53.0,
        "Latitude(deg)": 29.976412150555205,
        "Longitude(deg)": 75.4005730795185,
        "Mean Anomaly(deg)": 141.36716433788794,
        "RAAN(deg)": 24.950716842640084,
        "Satellite Name": "Starlink Shell 1 115",
        "Satellite Number": 115,
        "Semi-Major Axis(m)": 6931778.249405717,
        "Time(s)": 950
    },
    {
        "Altitude(m)": 554975.1023351878,
        "Argument of Periapsis(deg)": 0.03346353403307874,
        "Eccentricity": 0.0,
        "Inclination(deg)": 53.0,
        "Latitude(deg)": 29.52198610914544,
        "Longitude(deg)": 75.85827162836078,
        "Mean Anomaly(deg)": 141.99399554144466,
        "RAAN(deg)": 24.950198072562614,
        "Satellite Name": "Starlink Shell 1 115",
        "Satellite Number": 115,
        "Semi-Major Axis(m)": 6931778.249405717,
        "Time(s)": 960
    },
    {
        "Altitude(m)": 554903.6679962826,
        "Argument of Periapsis(deg)": 0.03381211251258998,
        "Eccentricity": 0.0,
        "Inclination(deg)": 53.0,
        "Latitude(deg)": 29.065672900791668,
        "Longitude(deg)": 76.3115254426888,
        "Mean Anomaly(deg)": 142.62082674500135,
        "RAAN(deg)": 24.94967930248514,
        "Satellite Name": "Starlink Shell 1 115",
        "Satellite Number": 115,
        "Semi-Major Axis(m)": 6931778.249405717,
        "Time(s)": 970
    },
    {
        "Altitude(m)": 554833.4043576224,
        "Argument of Periapsis(deg)": 0.034160690992101214,
        "Eccentricity": 0.0,
        "Inclination(deg)": 53.0,
        "Latitude(deg)": 28.607522894748993,
        "Longitude(deg)": 76.76043756946626,
        "Mean Anomaly(deg)": 143.2476579485581,
        "RAAN(deg)": 24.949160532407664,
        "Satellite Name": "Starlink Shell 1 115",
        "Satellite Number": 115,
        "Semi-Major Axis(m)": 6931778.249405717,
        "Time(s)": 980
    },
    {
        "Altitude(m)": 554764.3641532382,
        "Argument of Periapsis(deg)": 0.034509269471612446,
        "Eccentricity": 0.0,
        "Inclination(deg)": 53.0,
        "Latitude(deg)": 28.1475853564934,
        "Longitude(deg)": 77.2051102440705,
        "Mean Anomaly(deg)": 143.87448915211482,
        "RAAN(deg)": 24.948641762330194,
        "Satellite Name": "Starlink Shell 1 115",
        "Satellite Number": 115,
        "Semi-Major Axis(m)": 6931778.249405717,
        "Time(s)": 990
    }
]